COSMOS 2361             
1 25590U 98076A   24164.16673321  .00000077  00000+0  67420-4 0  9993
2 25590  82.9352  29.6913 0031388 353.6395 129.3121 13.73120401276128
COSMOS 2378             
1 26818U 01023A   24164.15532255  .00000080  00000+0  69608-4 0  9996
2 26818  82.9280  46.3844 0031767 295.7757 174.4435 13.74051213153960
COSMOS 2389             
1 27436U 02026A   24164.08317641  .00000092  00000+0  79543-4 0  9991
2 27436  82.9508 353.0484 0047059 149.6026 331.9124 13.75065736106144
COSMOS 2398             
1 27818U 03023A   24163.55996522  .00000104  00000+0  97125-4 0  9995
2 27818  82.9479 317.3730 0030996 195.8125 235.8730 13.72297539 52844
COSMOS 2407             
1 28380U 04028A   24164.28119271  .00000107  00000+0  93649-4 0  9995
2 28380  82.9609 259.0288 0040137 146.2342 267.7981 13.76213770998988
COSMOS 2414             
1 28521U 05002A   24164.17601718  .00000106  00000+0  75736-4 0  9991
2 28521  82.9502 239.5099 0038754 264.8888  94.7852 13.87777508982191
COSMOS 2429             
1 32052U 07038A   24164.16334506  .00000081  00000+0  68526-4 0  9994
2 32052  82.9814  27.5914 0039488 126.7836 233.6955 13.75055801840728
COSMOS 2454             
1 35635U 09039A   24164.18416600  .00000100  00000+0  68370-4 0  9994
2 35635  82.9568 224.5038 0018818 198.0352 215.6613 13.89806061755496
COSMOS 2463             
1 36519U 10017A   24164.18311753  .00000094  00000+0  86893-4 0  9999
2 36519  82.9613  69.7322 0036562  11.7406  99.0492 13.71561908707261
